84P/Giclas,e,7.5506,108.1562,281.6011,3.549647,0.1473758,0.51599275,112.5789,07/08.0/2022,2000,g  9.5,8.0
# From MPEC 2022-K19
86P/Wild,e,15.4753,72.3554,179.4401,3.601266,0.1442186,0.37221161,21.6765,07/08.0/2022,2000,g 11.0,6.0
# From MPEC 2020-SI8
87P/Bus,e,2.8047,180.7613,27.1660,3.461371,0.1530495,0.40055698,118.7552,07/08.0/2022,2000,g  7.2,10.0
# From MPEC 2022-ED3
88P/Howell,e,4.3826,56.6755,235.9281,3.105723,0.1800777,0.56392828,116.9724,07/08.0/2022,2000,g 11.0,6.0
# From MPC100283
89P/Russell,e,12.0707,41.3528,250.3941,3.753697,0.1355237,0.40829460,274.9659,07/08.0/2022,2000,g 11.5,6.0
# From MPEC 2022-K19
90P/Gehrels,e,9.6511,13.2053,29.0495,6.051192,0.0662129,0.51078765,122.0451,07/08.0/2022,2000,g  8.5,6.0
# From MPEC 2021-S45
91P/Russell,e,14.0950,247.2776,355.5916,3.903989,0.1277736,0.33320588,77.1664,07/08.0/2022,2000,g  7.5,6.0
# From MPEC 2014-J58
92P/Sanguin,e,19.5080,181.3617,163.7932,5.343292,0.0797978,0.66106796,213.8765,07/08.0/2022,2000,g 12.0,6.0
# From NK 2707
93P/Lovas,e,12.2034,339.6439,74.8164,4.380811,0.1074910,0.61329644,210.0309,07/08.0/2022,2000,g  9.0,4.0
# From MPEC 2021-Y10
94P/Russell,e,6.1880,70.8580,92.4376,3.508234,0.1499931,0.36520370,312.4277,07/08.0/2022,2000,g  9.0,6.0
# From MPC 75717
95P/Chiron,e,6.9214,209.2980,339.5479,13.71086,0.0194136,0.37630337,188.1919,07/08.0/2022,2000,g  6.5,2.0
# From MPEC 2017-T14
96P/Machholz,e,57.5067,93.9574,14.7489,3.029896,0.1868798,0.96157582,321.2990,07/08.0/2022,2000,g  9.0,4.0
# From MPEC 2022-C56
97P/Metcalf-Brewington,e,17.9520,184.0770,229.9778,4.759848,0.0949106,0.46001107,13.5178,07/08.0/2022,2000,g  5.5,6.0
# From MPEC 2021-W31
98P/Takamizawa,e,10.5605,114.6868,157.8274,3.794974,0.1333187,0.56222836,73.2301,07/08.0/2022,2000,g  9.0,8.0
# From MPEC 2022-M88
99P/Kowal,e,4.3398,28.1014,174.9115,6.104400,0.0653491,0.22906723,5.6569,07/08.0/2022,2000,g  4.5,6.0
# From MPEC 2022-M88
100P/Hartley,e,25.5660,37.6872,181.9746,3.432218,0.1550036,0.41215012,354.7362,07/08.0/2022,2000,g  9.0,8.0
# From MPEC 2022-K19
101P/Chernykh,e,5.0517,116.2172,277.7338,5.806829,0.0704361,0.59630033,63.8908,07/08.0/2022,2000,g 10.0,4.8
# From MPEC 2022-C56
102P/Shoemaker,e,25.8843,339.3660,20.6090,3.815144,0.1322628,0.45718383,70.2869,07/08.0/2022,2000,g  6.5,8.0
# From MPEC 2018-HA5
103P/Hartley,e,13.6090,219.7459,181.2881,3.475369,0.1521258,0.69364187,289.7845,07/08.0/2022,2000,g  8.5,8.0
# From MPEC 2022-N37
104P/Kowal,e,5.7019,207.2077,227.2524,3.208021,0.1715333,0.66552037,30.4254,07/08.0/2022,2000,g 16.0,4.0
# From MPC109147
105P/Singer Brewster,e,9.1686,192.3980,46.4649,3.468721,0.1525633,0.40897402,218.0962,07/08.0/2022,2000,g 11.5,6.0
# From MPEC 2022-GA9
106P/Schuster,e,19.5362,48.8774,353.6941,3.764214,0.1349561,0.59387162,43.6162,07/08.0/2022,2000,g 14.0,4.8
# From MPEC 2015-M77
107P/Wilson-Harrington,e,2.7993,266.7788,95.4400,2.625020,0.2317422,0.63175939,348.9544,07/08.0/2022,2000,g  9.0,4.0
# From MPEC 2022-GA9
108P/Ciffreo,e,11.4361,50.2841,354.4470,3.739611,0.1362901,0.55600507,41.0042,07/08.0/2022,2000,g  8.0,12.0
# From  105, 420
109P/Swift-Tuttle,e,113.8902,139.1145,152.9980,26.17902,0.0073582,0.96263257,79.4864,07/08.0/2022,2000,g  4.0,6.0
# From MPEC 2022-M88
110P/Hartley,e,11.7052,287.5313,167.4490,3.603354,0.1440933,0.31851611,37.8505,07/08.0/2022,2000,g  1.0,12.0
# From MPC 75718
111P/Helin-Roman-Crockett,e,4.2260,89.7600,1.0066,4.149696,0.1165949,0.10656883,45.1510,07/08.0/2022,2000,g  5.0,8.0
# From MPEC 2021-S45
112P/Urata-Niijima,e,24.2083,31.8323,21.4672,3.524838,0.1489345,0.59030652,131.1662,07/08.0/2022,2000,g 14.0,6.0
# From MPEC 2022-D36
113P/Spitaler,e,5.2901,306.6769,115.5171,3.690768,0.1390045,0.41971683,5.0826,07/08.0/2022,2000,g 13.5,4.0
# From MPEC 2022-K19
114P/Wiseman-Skiff,e,18.2813,271.0330,172.7455,3.543666,0.1477491,0.55511786,133.8346,07/08.0/2022,2000,g 11.5,6.0
# From MPEC 2021-UA9
115P/Maury,e,11.6772,176.0062,120.9974,4.271957,0.1116256,0.51825670,79.0933,07/08.0/2022,2000,g 10.5,6.0
# From MPEC 2022-N37
116P/Wild,e,3.6034,20.9802,173.2911,3.490403,0.1511439,0.37055466,358.6522,07/08.0/2022,2000,g  2.5,10.0
# From MPEC 2022-N37
117P/Helin-Roman-Alu,e,8.7040,58.8417,222.9498,4.082686,0.1194772,0.25548717,0.0216,07/08.0/2022,2000,g  2.5,8.0
# From MPEC 2021-TD0
118P/Shoemaker-Levy,e,10.0944,142.0878,314.8359,3.347001,0.1609609,0.45350321,337.5479,07/08.0/2022,2000,g 12.0,4.0
# From MPEC 2021-UA9
119P/Parker-Hartley,e,7.3934,104.5711,322.0539,3.804091,0.1328396,0.38818091,355.3554,07/08.0/2022,2000,g  3.5,8.0
# From MPEC 2022-CN4
120P/Mueller,e,8.4900,358.6711,36.6247,3.964102,0.1248782,0.37480673,53.2761,07/08.0/2022,2000,g 12.0,4.0
# From MPEC 2021-Y10
121P/Shoemaker-Holt,e,20.1649,94.1154,11.5533,4.583627,0.1004362,0.18604358,324.3379,07/08.0/2022,2000,g  6.5,8.0
# From MPC 75718
122P/de Vico,e,85.3538,79.6260,12.9936,17.62362,0.0133218,0.96228635,130.5496,07/08.0/2022,2000,g  7.5,5.2
# From MPEC 2021-F20
123P/West-Hartley,e,15.2842,45.9462,104.1008,3.879027,0.1290090,0.44486817,161.5104,07/08.0/2022,2000,g 12.2,4.0
# From MPEC 2022-K19
124P/Mrkos,e,31.7414,0.0972,184.9729,3.346085,0.1610269,0.49782202,129.4233,07/08.0/2022,2000,g 13.5,2.8
# From MPEC 2015-M77
125P/Spacewatch,e,9.9866,153.1465,87.2119,3.127182,0.1782273,0.51219787,251.5759,07/08.0/2022,2000,g  9.0,4.0
# From MPC 66205
126P/IRAS,e,45.8763,357.8729,356.5764,5.635509,0.0736723,0.69639629,333.3085,07/08.0/2022,2000,g  9.0,4.0
# From MPC 84321
127P/Holt-Olmstead,e,14.3005,13.6043,6.2948,3.455147,0.1534632,0.36004117,354.8595,07/08.0/2022,2000,g 11.0,6.0
# From MPC 89014
128P/Shoemaker-Holt,e,4.3697,214.3172,210.2589,4.489626,0.1036069,0.32150077,207.7064,07/08.0/2022,2000,g  8.5,4.0
# From MPEC 2022-K19
129P/Shoemaker-Levy,e,3.4423,184.8647,307.4957,4.286862,0.1110439,0.08456709,343.8478,07/08.0/2022,2000,g 11.0,4.0
# From MPEC 2022-ED3
130P/McNaught-Hughes,e,6.0625,70.1940,246.0797,3.383338,0.1583748,0.46126818,257.5848,07/08.0/2022,2000,g 10.0,6.0
# From MPC102101
131P/Mueller,e,7.3597,214.1465,179.0425,3.679341,0.1396526,0.34449330,175.9321,07/08.0/2022,2000,g 11.0,4.0
# From MPEC 2022-GA9
132P/Helin-Roman-Alu,e,5.3827,173.9953,216.3655,3.886434,0.1286403,0.56466324,30.4696,07/08.0/2022,2000,g 11.0,6.0
# From MPC 94676
133P/Elst-Pizarro,e,1.3897,160.0982,131.8990,3.165455,0.1750047,0.15656428,242.3903,07/08.0/2022,2000,g 15.4,2.0
# From MPC 89012
134P/Kowal-Vavrova,e,4.3353,202.0548,18.8693,6.263439,0.0628760,0.58523098,187.1273,07/08.0/2022,2000,g 11.5,4.0
# From MPEC 2022-L66
135P/Shoemaker-Levy,e,6.0633,213.0260,22.3242,3.800537,0.1330260,0.29480846,12.1903,07/08.0/2022,2000,g  7.0,8.0
# From MPEC 2022-K19
136P/Mueller,e,9.4243,137.4428,225.0213,4.190803,0.1148837,0.29332030,255.5158,07/08.0/2022,2000,g 11.0,4.0
# From MPEC 2022-K19
137P/Shoemaker-Levy,e,4.8563,232.9746,141.1101,4.521034,0.1025292,0.57383481,133.4475,07/08.0/2022,2000,g 11.0,4.0
# From MPEC 2016-U66
138P/Shoemaker-Levy,e,10.0903,309.3065,95.5558,3.620876,0.1430486,0.53110299,166.1487,07/08.0/2022,2000,g 15.0,6.0
# From MPEC 2020-HN5
139P/Vaisala-Oterma,e,2.3358,242.1450,165.7277,4.519850,0.1025694,0.24756030,171.2953,07/08.0/2022,2000,g  9.5,4.0
# From MPEC 2015-E14
140P/Bowell-Skiff,e,3.8438,343.2311,172.7802,6.420355,0.0605851,0.69272457,153.2935,07/08.0/2022,2000,g 11.5,6.0
# From MPEC 2022-K19
141P/Machholz,e,13.9496,241.8116,153.5786,3.057495,0.1843552,0.73594831,104.8253,07/08.0/2022,2000,g 12.0,12.0
# From MPEC 2021-Y10
142P/Ge-Wang,e,12.2514,175.9317,173.9862,4.999124,0.0881786,0.49719511,37.1488,07/08.0/2022,2000,g  8.5,6.0
# From MPEC 2021-W31
143P/Kowal-Mrkos,e,4.7069,245.0840,320.3230,4.276365,0.1114530,0.41198292,170.0000,07/08.0/2022,2000,g 13.5,2.0
# From MPC104795
144P/Kushida,e,3.9309,243.0402,216.3533,3.826093,0.1316955,0.63521358,285.3724,07/08.0/2022,2000,g  8.5,8.0
# From MPC108598
145P/Shoemaker-Levy,e,11.2790,26.7943,10.2497,4.136643,0.1171472,0.54212722,207.2682,07/08.0/2022,2000,g 13.5,4.0
# From MPC100284
146P/Shoemaker-LINEAR,e,23.1131,53.3786,317.0000,4.030405,0.1218095,0.64742282,267.4957,07/08.0/2022,2000,g 15.0,4.0
# From MPC 75720
147P/Kushida-Muramatsu,e,2.3086,92.0402,348.1169,4.035752,0.1215675,0.21922557,297.3704,07/08.0/2022,2000,g 14.0,4.0
# From MPEC 2022-CN4
148P/Anderson-LINEAR,e,3.6580,89.2111,8.0306,3.617601,0.1432429,0.54979122,3.4836,07/08.0/2022,2000,g 16.0,2.0
# From MPC 75720
149P/Mueller,e,34.3863,144.0580,31.0481,4.131313,0.1173740,0.32298020,167.4864,07/08.0/2022,2000,g  8.0,8.0
# From MPEC 2021-W31
150P/LONEOS,e,18.5129,272.2194,245.7536,3.877510,0.1290847,0.54843471,280.8052,07/08.0/2022,2000,g 13.5,4.0
# From MPEC 2022-K19
151P/Helin,e,4.7286,143.1572,216.0836,5.762949,0.0712421,0.57382724,175.2696,07/08.0/2022,2000,g 10.0,6.0
# From MPEC 2022-N37
152P/Helin-Lawrence,e,9.8805,91.8580,163.9713,4.476372,0.1040674,0.30858036,18.2314,07/08.0/2022,2000,g 11.5,4.0
# From MPC 46101
153P/Ikeya-Zhang,e,28.0241,93.3499,34.8497,50.43659,0.0027516,0.98969123,0.0000,03/02.9924/2002,2000,g  9.0,4.0
# From MPEC 2022-K19
154P/Brewington,e,17.6323,343.0376,47.8784,4.799088,0.0937489,0.67600611,293.9536,07/08.0/2022,2000,g  2.5,12.0
# From MPEC 2021-F20
155P/Shoemaker,e,6.3990,97.1787,14.5718,6.571545,0.0585063,0.72632418,56.5211,07/08.0/2022,2000,g 13.8,4.0
# From MPEC 2022-GA9
156P/Russell-LINEAR,e,17.2669,35.3472,0.4592,3.461755,0.1530240,0.61505582,91.3529,07/08.0/2022,2000,g 15.5,2.0
# From MPEC 2021-W31
157P/Tritton,e,12.4208,287.5481,155.0554,3.544054,0.1477249,0.55645135,350.5691,07/08.0/2022,2000,g 10.0,4.0
# From MPEC 2022-L66
158P/Kowal-LINEAR,e,7.7520,134.7592,182.8430,5.216949,0.0827140,0.07841924,26.1833,07/08.0/2022,2000,g  9.0,4.0
# From MPEC 2021-N06
159P/LONEOS,e,23.4767,54.9545,4.5583,5.852722,0.0696093,0.38227914,104.9263,07/08.0/2022,2000,g 10.0,4.0
# From MPEC 2022-K19
160P/LINEAR,e,15.6156,333.3605,12.7551,3.776009,0.1343243,0.52625933,127.3909,07/08.0/2022,2000,g 15.5,2.0
# From MPC 75721
161P/Hartley-IRAS,e,95.8022,1.5838,47.0009,7.719950,0.0459497,0.83521482,286.2749,07/08.0/2022,2000,g  8.5,6.0
